GLOBALSTAR M057 [-]     
1 25943U 99058A   23264.69205471 -.00000056  00000+0  33845-3 0  9992
2 25943  52.0015 348.8057 0003129 142.2872 217.8197 12.24771898 89184
GLOBALSTAR M059 [-]     
1 25944U 99058B   23264.96251086 -.00000068  00000+0  21930-3 0  9991
2 25944  52.0003 122.9133 0000919  86.2796  51.4521 11.99952895497909
GLOBALSTAR M056 [-]     
1 25945U 99058C   23264.82704111 -.00000027  00000+0  71008-3 0  9995
2 25945  51.9956 141.5396 0001452  30.3152  48.0143 12.04769444 86169
GLOBALSTAR M031 [-]     
1 25946U 99058D   23264.77115873 -.00000068  00000+0  22871-3 0  9990
2 25946  51.9960  71.9624 0001400   2.4547  98.4444 12.15996659 87364
GLOBALSTAR M039 [-]     
1 25961U 99062A   23264.67988953 -.00000064  00000+0  22343-3 0  9998
2 25961  51.9863  41.2018 0003084  36.3388 323.7687 12.62270504100083
GLOBALSTAR M034 [-]     
1 25962U 99062B   23264.93719911 -.00000055  00000+0  41759-3 0  9996
2 25962  51.9855 220.0241 0013953 285.4241 113.9780 11.79415104 63558
GLOBALSTAR M029 [-]     
1 25963U 99062C   23264.76615208 -.00000068  00000+0  21910-3 0  9993
2 25963  51.9838  12.0207 0002034 320.3094 198.8778 11.99867554 92962
GLOBALSTAR M061 [-]     
1 25964U 99062D   23264.70884442 -.00000061  00000+0  31497-3 0  9990
2 25964  51.9818  36.2450 0005730 206.2446 263.0417 11.76750006 46487
